[{"OBJECT_NAME":"NEOSSAT","OBJECT_ID":"2013-009D","EPOCH":"2026-03-09T11:41:06.061344","MEAN_MOTION":14.35785569,"ECCENTRICITY":0.00110325,"INCLINATION":98.4141,"RA_OF_ASC_NODE":250.8974,"ARG_OF_PERICENTER":177.9575,"MEAN_ANOMALY":182.1658,"EPHEMERIS_TYPE":0,"CLASSIFICATION_TYPE":"U","NORAD_CAT_ID":39089,"ELEMENT_SET_NO":999,"REV_AT_EPOCH":68243,"BSTAR":0.00010834728,"MEAN_MOTION_DOT":2.71e-6,"MEAN_MOTION_DDOT":0},{"OBJECT_NAME":"ARIANE 40 R\/B","OBJECT_ID":"1993-061H","EPOCH":"2026-03-09T18:26:30.161760","MEAN_MOTION":14.32860991,"ECCENTRICITY":0.0009538,"INCLINATION":98.4915,"RA_OF_ASC_NODE":137.6545,"ARG_OF_PERICENTER":284.8597,"MEAN_ANOMALY":75.1531,"EPHEMERIS_TYPE":0,"CLASSIFICATION_TYPE":"U","NORAD_CAT_ID":22830,"ELEMENT_SET_NO":999,"REV_AT_EPOCH":69411,"BSTAR":0.00010373604,"MEAN_MOTION_DOT":2.4e-6,"MEAN_MOTION_DDOT":0}]
